     2.100          NAVIGATION                              RINEX VERSION / TYPE
fic2rin                                 05/30/2009 01:52:56 PGM / RUN BY / DATE
                                                            END OF HEADER
 3 09  5 29 18  0  0.0  .399568583816D-03  .511590769747D-11  .000000000000D+00
     .300000000000D+02 -.269375000000D+02  .499306512406D-08  .313365129789D+01
    -.136718153954D-05  .118716957513D-01  .103879719973D-04  .515363421631D+04
     .496800000000D+06  .726431608200D-07 -.155913535119D+01 -.745058059692D-07
     .925949812864D+00  .160406250000D+03  .900980387690D+00 -.799711882638D-08
     .323227749447D-09  .100000000000D+01  .153300000000D+04  .000000000000D+00
     .340000000000D+01  .000000000000D+00 -.419095158577D-08  .300000000000D+02
     .489606000000D+06  .400000000000D+01
 4 09  5 29 18  0  0.0 -.111057888716D-03 -.156887836056D-10  .000000000000D+00
     .340000000000D+02  .195000000000D+02  .525629037416D-08  .568133701163D-01
     .122375786304D-05  .858738319948D-02  .602751970291D-05  .515373985863D+04
     .496800000000D+06  .104308128357D-06 -.392815026734D+00  .968575477600D-07
     .940625662206D+00  .253187500000D+03  .486282082892D+00 -.855964225774D-08
     .123576576032D-09  .100000000000D+01  .153300000000D+04  .000000000000D+00
     .240000000000D+01  .000000000000D+00 -.605359673500D-08  .340000000000D+02
     .489606000000D+06  .400000000000D+01
 5 09  5 29 18  0  0.0 -.105170067400D-03 -.217141860048D-10  .000000000000D+00
     .620000000000D+02 -.992500000000D+02  .492663378550D-08 -.232762402780D+00
    -.510178506374D-05  .968853675295D-02  .703521072865D-05  .515355979347D+04
     .496800000000D+06 -.707805156708D-07 -.258924125060D+01  .158324837685D-06
     .946404027698D+00  .234593750000D+03  .130597953099D+01 -.854392731744D-08
    -.251081887140D-09  .100000000000D+01  .153300000000D+04  .000000000000D+00
     .340000000000D+01  .630000000000D+02 -.419095158577D-08  .620000000000D+02
     .489606000000D+06  .400000000000D+01
 6 09  5 29 18  0  0.0  .141774769872D-03  .143245415529D-10  .000000000000D+00
     .122000000000D+03 -.175312500000D+02  .494449167221D-08 -.698846043046D+00
    -.821426510811D-06  .598823092878D-02  .103134661913D-04  .515370214272D+04
     .496800000000D+06 -.875443220139D-07 -.149150019673D+01  .135973095894D-06
     .933416099087D+00  .170187500000D+03 -.135823651255D+01 -.821677083292D-08
     .377515725045D-09  .100000000000D+01  .153300000000D+04  .000000000000D+00
     .240000000000D+01  .000000000000D+00 -.465661287308D-08  .122000000000D+03
     .489606000000D+06  .400000000000D+01
 7 09  5 29 18  0  0.0  .180206261575D-04 -.682121026330D-12  .000000000000D+00
     .740000000000D+02 -.706250000000D+01  .468269505304D-08  .176844379051D+01
    -.135973095894D-06  .259106524754D-02  .319629907608D-05  .515367184067D+04
     .496800000000D+06  .143423676491D-06  .274402839790D+01  .260770320892D-07
     .967601536579D+00  .320062500000D+03  .287656729541D+01 -.841963642594D-08
    -.675028117631D-10  .100000000000D+01  .153300000000D+04  .000000000000D+00
     .240000000000D+01  .000000000000D+00 -.107102096081D-07  .740000000000D+02
     .489606000000D+06  .400000000000D+01
 8 09  5 29 18  0  0.0 -.205343123525D-03 -.170530256582D-11  .000000000000D+00
     .120000000000D+02 -.167187500000D+02  .417231665088D-08  .104115611402D+01
    -.836327672005D-06  .105808897642D-01  .295042991638D-05  .515364826012D+04
     .496800000000D+06  .156462192535D-06  .280441658097D+01  .707805156708D-07
     .988833340649D+00  .330312500000D+03  .299089541562D+01 -.816248285732D-08
    -.186436337250D-09  .100000000000D+01  .153300000000D+04  .000000000000D+00
     .240000000000D+01  .000000000000D+00 -.372529029846D-08  .120000000000D+02
     .489606000000D+06  .400000000000D+01
 9 09  5 29 18  0  0.0  .584032386541D-04  .204636307899D-11  .000000000000D+00
     .640000000000D+02  .228125000000D+01  .465805116939D-08  .801917823485D+00
     .167638063431D-07  .205765346764D-01  .408850610256D-05  .515363238907D+04
     .496800000000D+06 -.324100255966D-06  .271003678389D+01 -.931322574615D-07
     .976502298829D+00  .316625000000D+03  .147718933960D+01 -.868464746471D-08
    -.617882880159D-10  .100000000000D+01  .153300000000D+04  .000000000000D+00
     .240000000000D+01  .000000000000D+00 -.558793544769D-08  .640000000000D+02
     .489606000000D+06  .400000000000D+01
10 09  5 29 18  0  0.0 -.167228281498D-04 -.568434188608D-12  .000000000000D+00
     .560000000000D+02  .192812500000D+02  .466448000860D-08 -.188208944481D+01
     .676140189171D-06  .859103724360D-02  .860728323460D-05  .515360849571D+04
     .496800000000D+06  .158324837685D-06  .672858260116D+00 -.130385160446D-07
     .958522200308D+00  .207562500000D+03  .627301752036D+00 -.802140555231D-08
    -.192150860997D-09  .100000000000D+01  .153300000000D+04  .000000000000D+00
     .240000000000D+01  .000000000000D+00 -.279396772385D-08  .560000000000D+02
     .489606000000D+06  .400000000000D+01
11 09  5 29 18  0  0.0 -.441353768110D-05 -.147792889038D-11  .000000000000D+00
     .400000000000D+02  .312500000000D+02  .644098257849D-08  .158771713219D+01
     .159628689289D-05  .935793737881D-02  .620074570179D-05  .515368252373D+04
     .496800000000D+06 -.191852450371D-06 -.611347738001D+00  .117346644402D-06
     .889407595328D+00  .220437500000D+03  .696640148373D+00 -.912716589738D-08
     .180007498035D-09  .100000000000D+01  .153300000000D+04  .000000000000D+00
     .240000000000D+01  .000000000000D+00 -.116415321827D-07  .400000000000D+02
     .489606000000D+06  .400000000000D+01
12 09  5 29 18  0  0.0 -.274226069450D-03  .557065504836D-11  .000000000000D+00
     .890000000000D+02 -.103625000000D+03  .433482341994D-08  .179068386990D+01
    -.529922544956D-05  .334943376947D-02  .789016485214D-05  .515365509796D+04
     .496800000000D+06  .651925802231D-07 -.248749844639D+01  .912696123123D-07
     .967140591573D+00  .226937500000D+03 -.697274981673D+00 -.801890544817D-08
    -.295726603914D-09  .100000000000D+01  .153300000000D+04  .000000000000D+00
     .240000000000D+01  .000000000000D+00 -.116415321827D-07  .890000000000D+02
     .489606000000D+06  .400000000000D+01
14 09  5 29 18  0  0.0 -.102994963527D-03  .591171556152D-11  .000000000000D+00
     .970000000000D+02  .737187500000D+02  .391837750187D-08 -.234441385082D+01
     .394135713577D-05  .444545713253D-02  .909902155399D-05  .515361303902D+04
     .496800000000D+06  .130385160446D-06  .173441805393D+01  .149011611938D-07
     .988182266032D+00  .217031250000D+03 -.215273243328D+01 -.778782439415D-08
     .164292557730D-09  .100000000000D+01  .153300000000D+04  .000000000000D+00
     .240000000000D+01  .000000000000D+00 -.931322574615D-08  .970000000000D+02
     .489606000000D+06  .400000000000D+01
15 09  5 29 18  0  0.0 -.296290963888D-03 -.352429196937D-11  .000000000000D+00
     .680000000000D+02  .907812500000D+02  .463162149705D-08 -.216488193867D+01
     .464171171188D-05  .143552490044D-02  .843964517117D-05  .515362644958D+04
     .496800000000D+06 -.577419996262D-07  .168185222696D+01 -.558793544769D-08
     .956208539775D+00  .216750000000D+03 -.470587374013D+00 -.815855412224D-08
     .864321716755D-10  .100000000000D+01  .153300000000D+04  .000000000000D+00
     .240000000000D+01  .000000000000D+00 -.977888703346D-08  .680000000000D+02
     .489606000000D+06  .400000000000D+01
16 09  5 29 18  0  0.0  .467295758426D-04 -.341060513165D-11  .000000000000D+00
     .780000000000D+02 -.977187500000D+02  .420946105524D-08 -.673308269809D+00
    -.509433448315D-05  .536703481339D-02  .771321356297D-05  .515355474091D+04
     .496800000000D+06  .186264514923D-07 -.247055038244D+01 -.232830643654D-06
     .968582603090D+00  .238093750000D+03 -.353418581417D+00 -.797033199632D-08
    -.228938107620D-09  .100000000000D+01  .153300000000D+04  .000000000000D+00
     .240000000000D+01  .000000000000D+00 -.977888703346D-08  .780000000000D+02
     .489606000000D+06  .400000000000D+01
17 09  5 29 18  0  0.0  .615310855210D-04  .193267624127D-11  .000000000000D+00
     .620000000000D+02  .287500000000D+01  .433732352408D-08 -.178683696735D+01
     .139698386192D-06  .450677482877D-02  .103041529655D-04  .515368504906D+04
     .496800000000D+06 -.102445483208D-06 -.142815229047D+01 -.175088644028D-06
     .959345561325D+00  .182437500000D+03 -.264110094018D+01 -.777925260852D-08
     .348585948575D-09  .100000000000D+01  .153300000000D+04  .000000000000D+00
     .240000000000D+01  .000000000000D+00 -.102445483208D-07  .620000000000D+02
     .489606000000D+06  .400000000000D+01
18 09  5 29 18  0  0.0 -.527226366103D-04  .318323145621D-11  .000000000000D+00
     .220000000000D+02  .725000000000D+01  .513449958680D-08 -.488249810113D+00
     .549480319023D-06  .104071424576D-01  .867061316967D-05  .515359704208D+04
     .496800000000D+06  .577419996262D-07  .678271930371D+00  .135973095894D-06
     .942562712035D+00  .204312500000D+03 -.242247411062D+01 -.843285126210D-08
    -.339299847486D-09  .100000000000D+01  .153300000000D+04  .000000000000D+00
     .240000000000D+01  .000000000000D+00 -.107102096081D-07  .220000000000D+02
     .489606000000D+06  .400000000000D+01
19 09  5 29 18  0  0.0  .242004171014D-04 -.125055521494D-11  .000000000000D+00
     .850000000000D+02  .290625000000D+01  .441268380599D-08 -.239837782078D+01
     .273808836937D-06  .562084873673D-02  .101886689663D-04  .515361072922D+04
     .496800000000D+06 -.223517417908D-07 -.137208344179D+01  .149011611938D-07
     .957057693500D+00  .184000000000D+03 -.358884346185D+00 -.790390065776D-08
     .395016454021D-09  .100000000000D+01  .153300000000D+04  .000000000000D+00
     .240000000000D+01  .000000000000D+00 -.144354999065D-07  .850000000000D+02
     .489606000000D+06  .400000000000D+01
